{
    "links": {
        "self": "http://www.neowsapp.com/rest/v1/neo/3441848?api_key=iIulBulltgU6a56xZRHN4H3l9WmuAYTsLGpBGhQ2"
    },
    "id": "3441848",
    "neo_reference_id": "3441848",
    "name": "(2008 YP2)",
    "designation": "2008 YP2",
    "nasa_jpl_url": "http://ssd.jpl.nasa.gov/sbdb.cgi?sstr=3441848",
    "absolute_magnitude_h": 23.3,
    "estimated_diameter": {
        "kilometers": {
            "estimated_diameter_min": 0.058150704,
            "estimated_diameter_max": 0.130028927
        },
        "meters": {
            "estimated_diameter_min": 58.1507039646,
            "estimated_diameter_max": 130.0289270043
        },
        "miles": {
            "estimated_diameter_min": 0.0361331611,
            "estimated_diameter_max": 0.0807962044
        },
        "feet": {
            "estimated_diameter_min": 190.7831555951,
            "estimated_diameter_max": 426.6041048727
        }
    },
    "is_potentially_hazardous_asteroid": false,
    "close_approach_data": [
        {
            "close_approach_date": "2008-11-16",
            "close_approach_date_full": "2008-Nov-16 13:30",
            "epoch_date_close_approach": 1226842200000,
            "relative_velocity": {
                "kilometers_per_second": "5.8625844145",
                "kilometers_per_hour": "21105.303892251",
                "miles_per_hour": "13114.0150768268"
            },
            "miss_distance": {
                "astronomical": "0.0964454512",
                "lunar": "37.5172805168",
                "kilometers": "14428034.070708944",
                "miles": "8965164.6513296672"
            },
            "orbiting_body": "Earth"
        }
    ],
    "orbital_data": {
        "orbit_id": "8",
        "orbit_determination_date": "2017-04-06 09:01:52",
        "first_observation_date": "2008-12-21",
        "last_observation_date": "2008-12-30",
        "data_arc_in_days": 9,
        "observations_used": 27,
        "orbit_uncertainty": "9",
        "minimum_orbit_intersection": ".0957635",
        "jupiter_tisserand_invariant": "4.411",
        "epoch_osculation": "2454823.5",
        "eccentricity": ".3267299791668843",
        "semi_major_axis": "1.53392739692342",
        "inclination": "6.945220410559881",
        "ascending_node_longitude": "268.8797642243919",
        "orbital_period": "693.9139738924497",
        "perihelion_distance": "1.032747330483118",
        "perihelion_argument": "122.0357156205309",
        "aphelion_distance": "2.035107463363723",
        "perihelion_time": "2454765.785950049766",
        "mean_anomaly": "29.94183539140616",
        "mean_motion": ".5187962968674799",
        "equinox": "J2000",
        "orbit_class": {
            "orbit_class_type": "AMO",
            "orbit_class_description": "Near-Earth asteroid orbits similar to that of 1221 Amor",
            "orbit_class_range": "1.017 AU < q (perihelion) < 1.3 AU"
        }
    },
    "is_sentry_object": false
}